DMSP 5D-3 F18 (USA 210) 
1 35951U 09057A   24126.88164799  .00000430  00000+0  24896-3 0  9999
2 35951  98.8117 102.8076 0009998 290.1647  69.8450 14.14090588750405
EWS-G2 (GOES 15)        
1 36411U 10008A   24126.92619032  .00000035  00000+0  00000+0 0  9997
2 36411   0.1888  90.5342 0001366 183.9366 344.7195  1.00275536 51892
COMS 1                  
1 36744U 10032A   24126.72348354 -.00000344  00000+0  00000+0 0  9991
2 36744   2.8221  84.9648 0000808 317.8751 209.8169  1.00271563 43342
FENGYUN 3B              
1 37214U 10059A   24126.97859580  .00000149  00000+0  10146-3 0  9996
2 37214  99.0584 154.4761 0021700 209.5258 211.0565 14.14482162698245
SUOMI NPP               
1 37849U 11061A   24126.89332081  .00000128  00000+0  81583-4 0  9998
2 37849  98.7203  65.5121 0001589  69.3243 290.8103 14.19559740648873
FENGYUN 2F              
1 38049U 12002A   24126.89264874 -.00000357  00000+0  00000+0 0  9996
2 38049   5.4907  73.5371 0002189  84.0341 140.0637  1.00280255 45134
METEOSAT-10 (MSG-3)     
1 38552U 12035B   24124.63840662 -.00000008  00000+0  00000+0 0  9999
2 38552   2.8664  60.6086 0002032 296.4857  94.7831  1.00269648 43099
METOP-B                 
1 38771U 12049A   24126.87109335  .00000216  00000+0  11828-3 0  9994
2 38771  98.6302 185.0361 0001717 116.4381 243.6973 14.21520514603536
INSAT-3D                
1 39216U 13038B   24126.92063318 -.00000157  00000+0  00000+0 0  9995
2 39216   0.0161  85.6745 0001226 214.2280 337.9027  1.00269691 39339
FENGYUN 3C              
1 39260U 13052A   24126.91760867  .00000178  00000+0  11032-3 0  9995
2 39260  98.4291 128.7656 0012368  89.2378 271.0214 14.16191350549283
METEOR-M 2              
1 40069U 14037A   24126.92255910  .00000201  00000+0  11199-3 0  9998
2 40069  98.4362 123.0520 0006863 116.0631 244.1254 14.20947181509628
HIMAWARI-8              
1 40267U 14060A   24126.89493637 -.00000277  00000+0  00000+0 0  9999
2 40267   0.0337 156.5818 0001007 289.9071 240.5861  1.00272482 35013
FENGYUN 2G              
1 40367U 14090A   24126.88723904 -.00000299  00000+0  00000+0 0  9999
2 40367   3.6834  81.9948 0002564  80.2124 120.9119  1.00263247 34251
METEOSAT-11 (MSG-4)     
1 40732U 15034A   24126.84424392  .00000062  00000+0  00000+0 0  9996
2 40732   1.2857  67.9474 0001480 173.1798 296.4121  1.00265753   102
ELEKTRO-L 2             
1 41105U 15074A   24126.08938427 -.00000116  00000+0  00000+0 0  9991
2 41105   4.7332  79.9639 0001129 223.1184 298.0184  1.00269354 30756
INSAT-3DR               
1 41752U 16054A   24126.92063318 -.00000078  00000+0  00000+0 0  9996
2 41752   0.0880  90.9150 0010669 182.7416 356.0128  1.00270148 28077
HIMAWARI-9              
1 41836U 16064A   24126.89493637 -.00000277  00000+0  00000+0 0  9998
2 41836   0.0522  84.4610 0000776 327.9754 274.7281  1.00269361 27461
GOES 16                 
1 41866U 16071A   24126.20604859 -.00000250  00000+0  00000+0 0  9995
2 41866   0.0404 274.0711 0000493 155.8325 152.6315  1.00269791 27357
FENGYUN 4A              
1 41882U 16077A   24126.94059098 -.00000196  00000+0  00000+0 0  9998
2 41882   0.3519  84.0332 0008633 343.6347 221.6169  1.00263157 27183
CYGFM05                 
1 41884U 16078A   24126.63695119  .00008357  00000+0  31765-3 0  9999
2 41884  34.9538 210.2849 0012257 171.7053 188.3866 15.25978603409577
CYGFM04                 
1 41885U 16078B   24126.51956920  .00008571  00000+0  31716-3 0  9991
2 41885  34.9482 195.5034 0010238 195.2293 164.8115 15.26876504409643
CYGFM02                 
1 41886U 16078C   24126.87935409  .00009003  00000+0  32983-3 0  9998
2 41886  34.9530 195.5745 0013296 185.8936 174.1624 15.27164611409787
CYGFM01                 
1 41887U 16078D   24126.61128266  .00008617  00000+0  33038-3 0  9998
2 41887  34.9490 214.1811 0012677 161.8639 198.2530 15.25680808409503
CYGFM08                 
1 41888U 16078E   24126.91839934  .00009462  00000+0  35178-3 0  9999
2 41888  34.9476 200.8318 0013573 187.2329 172.8192 15.26666761409725
CYGFM07                 
1 41890U 16078G   24126.44677686  .00008697  00000+0  32079-3 0  9990
2 41890  34.9506 195.3988 0010139 193.0751 166.9702 15.26981864409648
CYGFM03                 
1 41891U 16078H   24126.87143581  .00008839  00000+0  32672-3 0  9997
2 41891  34.9501 193.8522 0011088 181.6565 178.4114 15.26902151409693
FENGYUN 3D              
1 43010U 17072A   24126.93913407  .00000154  00000+0  94789-4 0  9996
2 43010  98.9079  81.3542 0002618  92.3594 267.7881 14.19330406335421
NOAA 20 (JPSS-1)        
1 43013U 17073A   24126.91141177  .00000154  00000+0  93551-4 0  9991
2 43013  98.7044  65.5449 0001271  38.7676 321.3591 14.19575118334901
GOES 17                 
1 43226U 18022A   24126.56438359 -.00000092  00000+0  00000+0 0  9998
2 43226   0.0146  73.7759 0000533 303.0985 305.5151  1.00269716 22676
FENGYUN 2H              
1 43491U 18050A   24126.92653209 -.00000130  00000+0  00000+0 0  9999
2 43491   1.0341  87.5211 0001214  20.1434 169.4908  1.00272394 21691
METOP-C                 
1 43689U 18087A   24126.90798588  .00000208  00000+0  11532-3 0  9997
2 43689  98.7263 186.6721 0002030 177.5964 182.5224 14.21486416285110
GEO-KOMPSAT-2A          
1 43823U 18100A   24126.90604810 -.00000346  00000+0  00000+0 0  9995
2 43823   0.0245  86.8441 0001750 341.2084 250.6388  1.00268988 19889
METEOR-M2 2             
1 44387U 19038A   24126.91830688  .00000068  00000+0  49175-4 0  9998
2 44387  98.8241  95.9836 0002428  85.0600 275.0855 14.23878827251375
ARKTIKA-M 1             
1 47719U 21016A   24126.38420484  .00000156  00000+0  00000+0 0  9996
2 47719  63.1374 156.6643 6927945 268.7879  18.0162  2.00601725 23280
FENGYUN 3E              
1 49008U 21062A   24126.92184116  .00000039  00000+0  39222-4 0  9992
2 49008  98.7328 128.7687 0002337 126.8582 233.2809 14.19748134146994
GOES 18                 
1 51850U 22021A   24126.78521536  .00000095  00000+0  00000+0 0  9990
2 51850   0.0040   7.1068 0000308 351.3112  11.3949  1.00272383  8027
NOAA 21 (JPSS-2)        
1 54234U 22150A   24126.87469994  .00000162  00000+0  97448-4 0  9993
2 54234  98.7499  65.2689 0000644  84.4209 275.7041 14.19560678 76975
METEOSAT-12 (MTG-I1)    
1 54743U 22170C   24126.84945382 -.00000007  00000+0  00000+0 0  9999
2 54743   0.4504  31.1783 0001046  32.7022 105.8310  1.00275239  5235
TIANMU-1 03             
1 55973U 23039A   24126.90647127  .00010134  00000+0  40351-3 0  9991
2 55973  97.4637 277.7092 0011269 254.5517 105.4476 15.25383671 62410
TIANMU-1 04             
1 55974U 23039B   24126.88965474  .00010309  00000+0  41095-3 0  9997
2 55974  97.4558 277.2979 0008406 252.5869 107.4450 15.25365386 62405
TIANMU-1 05             
1 55975U 23039C   24126.94103065  .00009811  00000+0  39152-3 0  9992
2 55975  97.4607 277.6444 0004741 241.9294 118.1465 15.25363513 62409
TIANMU-1 06             
1 55976U 23039D   24126.85995114  .00009600  00000+0  38328-3 0  9997
2 55976  97.4622 277.6714 0004213 244.1135 115.9669 15.25357863 62390
METEOR-M2 3             
1 57166U 23091A   24126.88335155  .00000048  00000+0  40433-4 0  9992
2 57166  98.7159 181.9290 0002932 244.8732 115.2142 14.23887828 44603
TIANMU-1 07             
1 57399U 23101A   24126.87584603  .00005558  00000+0  28889-3 0  9996
2 57399  97.3665 185.2281 0004260 355.5806   4.5389 15.16462890 44012
TIANMU-1 08             
1 57400U 23101B   24126.91162116  .00006051  00000+0  31393-3 0  9998
2 57400  97.3654 185.1410 0006595 354.3490   5.7667 15.16481687 44012
TIANMU-1 09             
1 57401U 23101C   24126.89363829  .00006107  00000+0  31715-3 0  9990
2 57401  97.3610 184.9931 0006867 348.8081  11.2998 15.16439609 44012
TIANMU-1 10             
1 57402U 23101D   24126.92520635  .00005976  00000+0  31049-3 0  9998
2 57402  97.3689 185.2557 0009017 344.2254  15.8697 15.16419644 44012
FENGYUN 3F              
1 57490U 23111A   24126.87807941  .00000139  00000+0  86503-4 0  9990
2 57490  98.7711 196.3955 0001124 139.7779 220.3480 14.19803167 39268
TIANMU-1 11             
1 58645U 23205A   24126.90924796  .00005040  00000+0  27703-3 0  9991
2 58645  97.4065 153.1012 0011705 181.4801 178.6399 15.14477191 20118
TIANMU-1 12             
1 58646U 23205B   24126.85943882  .00005225  00000+0  28704-3 0  9990
2 58646  97.4052 152.9905 0010502 172.6607 187.4780 15.14489534 20096
TIANMU-1 13             
1 58647U 23205C   24126.89198540  .00005875  00000+0  32231-3 0  9999
2 58647  97.4080 153.0001 0010885 159.2967 200.8708 15.14479532 20098
TIANMU-1 14             
1 58648U 23205D   24126.87598536  .00005744  00000+0  31508-3 0  9998
2 58648  97.4007 152.8903 0011371 160.1325 200.0352 15.14488312 20099
TIANMU-1 19             
1 58660U 23208A   24126.87988038  .00006671  00000+0  36745-3 0  9993
2 58660  97.4065 240.3596 0010497 147.1227 213.0660 15.14294181 19769
TIANMU-1 20             
1 58661U 23208B   24126.90575605  .00006683  00000+0  35973-3 0  9995
2 58661  97.3995 240.3481 0011153 156.2461 203.9289 15.15104405 19771
TIANMU-1 21             
1 58662U 23208C   24126.85668784  .00007668  00000+0  40284-3 0  9996
2 58662  97.4033 240.4826 0010804 157.0332 203.1386 15.15925057 19772
TIANMU-1 22             
1 58663U 23208D   24126.89601914  .00005909  00000+0  32604-3 0  9996
2 58663  97.4051 240.4604 0006161 161.4813 198.6644 15.14310261 19770
TIANMU-1 15             
1 58700U 24004A   24126.93707608  .00005776  00000+0  31808-3 0  9992
2 58700  97.4622 308.8443 0010049 191.1598 168.9412 15.14364973 18373
TIANMU-1 16             
1 58701U 24004B   24126.92089980  .00006372  00000+0  35020-3 0  9991
2 58701  97.4548 308.7471 0009886 197.1091 162.9809 15.14398648 18372
